{
  "type": "FeatureCollection",
  "features": [
    {
      "type": "Feature",
      "properties": {
        "norad_id": 58701,
        "name": "TIANMU-1 16",
        "group": "weather",
        "lat": -64.75263372205168,
        "lon": -19.69491318498285,
        "alt_km": 496.4808093408219,
        "timestamp": "2025-12-21T14:40:47.553645+00:00",
        "meta_object_name": "TIANMU-1 16",
        "meta_object_id": "2024-004B",
        "meta_epoch": "2025-12-21T05:43:42.728736",
        "meta_mean_motion": 15.24537385,
        "meta_eccentricity": 0.00043357,
        "meta_inclination": 97.4561,
        "meta_ra_of_asc_node": 176.058,
        "meta_arg_of_pericenter": 257.6375,
        "meta_mean_anomaly": 102.4377,
        "meta_ephemeris_type": 0,
        "meta_classification_type": "U",
        "meta_norad_cat_id": 58701,
        "meta_element_set_no": 999,
        "meta_rev_at_epoch": 10864,
        "meta_bstar": 0.0002201028,
        "meta_mean_motion_dot": 5.346e-05,
        "meta_mean_motion_ddot": 0,
        "tle_line1": "1 58701U 24004B   25355.23868899  .00005346  00000+0  22010-3 0  9999",
        "tle_line2": "2 58701  97.4561 176.0580 0004335 257.6375 102.4377 15.24537385108648"
      },
      "geometry": {
        "type": "Point",
        "coordinates": [
          -19.69491318498285,
          -64.75263372205168
        ]
      }
    },
    {
      "type": "Feature",
      "properties": {
        "norad_id": 58702,
        "name": "TIANMU-1 17",
        "group": "weather",
        "lat": -28.152429243970175,
        "lon": -179.1355711291948,
        "alt_km": 497.27575014476224,
        "timestamp": "2025-12-21T14:40:47.553655+00:00",
        "meta_object_name": "TIANMU-1 17",
        "meta_object_id": "2024-004C",
        "meta_epoch": "2025-12-21T06:55:41.507040",
        "meta_mean_motion": 15.2458171,
        "meta_eccentricity": 0.00035135,
        "meta_inclination": 97.4596,
        "meta_ra_of_asc_node": 176.5222,
        "meta_arg_of_pericenter": 258.9012,
        "meta_mean_anomaly": 101.183,
        "meta_ephemeris_type": 0,
        "meta_classification_type": "U",
        "meta_norad_cat_id": 58702,
        "meta_element_set_no": 999,
        "meta_rev_at_epoch": 10864,
        "meta_bstar": 0.00021625416,
        "meta_mean_motion_dot": 5.257e-05,
        "meta_mean_motion_ddot": 0,
        "tle_line1": "1 58702U 24004C   25355.28867485  .00005257  00000+0  21625-3 0  9997",
        "tle_line2": "2 58702  97.4596 176.5222 0003513 258.9012 101.1830 15.24581710108645"
      },
      "geometry": {
        "type": "Point",
        "coordinates": [
          -179.1355711291948,
          -28.152429243970175
        ]
      }
    },
    {
      "type": "Feature",
      "properties": {
        "norad_id": 58703,
        "name": "TIANMU-1 18",
        "group": "weather",
        "lat": 61.754710896230975,
        "lon": 162.9207574938431,
        "alt_km": 488.01595650867876,
        "timestamp": "2025-12-21T14:40:47.553665+00:00",
        "meta_object_name": "TIANMU-1 18",
        "meta_object_id": "2024-004D",
        "meta_epoch": "2025-12-21T06:31:46.880832",
        "meta_mean_motion": 15.24566081,
        "meta_eccentricity": 0.00028593,
        "meta_inclination": 97.4613,
        "meta_ra_of_asc_node": 176.7028,
        "meta_arg_of_pericenter": 256.6012,
        "meta_mean_anomaly": 103.4907,
        "meta_ephemeris_type": 0,
        "meta_classification_type": "U",
        "meta_norad_cat_id": 58703,
        "meta_element_set_no": 999,
        "meta_rev_at_epoch": 10864,
        "meta_bstar": 0.00021646443,
        "meta_mean_motion_dot": 5.26e-05,
        "meta_mean_motion_ddot": 0,
        "tle_line1": "1 58703U 24004D   25355.27207038  .00005260  00000+0  21646-3 0  9996",
        "tle_line2": "2 58703  97.4613 176.7028 0002859 256.6012 103.4907 15.24566081108643"
      },
      "geometry": {
        "type": "Point",
        "coordinates": [
          162.9207574938431,
          61.754710896230975
        ]
      }
    },
    {
      "type": "Feature",
      "properties": {
        "norad_id": 58990,
        "name": "INSAT-3DS",
        "group": "weather",
        "lat": -0.03201737934877037,
        "lon": 32.73640480752952,
        "alt_km": 35788.31393500432,
        "timestamp": "2025-12-21T14:40:47.553677+00:00",
        "meta_object_name": "INSAT-3DS",
        "meta_object_id": "2024-033A",
        "meta_epoch": "2025-12-20T23:53:35.753280",
        "meta_mean_motion": 1.0027214,
        "meta_eccentricity": 0.00011004,
        "meta_inclination": 0.054,
        "meta_ra_of_asc_node": 103.3228,
        "meta_arg_of_pericenter": 169.8539,
        "meta_mean_anomaly": 257.1496,
        "meta_ephemeris_type": 0,
        "meta_classification_type": "U",
        "meta_norad_cat_id": 58990,
        "meta_element_set_no": 999,
        "meta_rev_at_epoch": 4528,
        "meta_bstar": 0,
        "meta_mean_motion_dot": -1.33e-06,
        "meta_mean_motion_ddot": 0,
        "tle_line1": "1 58990U 24033A   25354.99555270 -.00000133  00000+0  00000+0 0  9990",
        "tle_line2": "2 58990   0.0540 103.3228 0001100 169.8539 257.1496  1.00272140 45284"
      },
      "geometry": {
        "type": "Point",
        "coordinates": [
          32.73640480752952,
          -0.03201737934877037
        ]
      }
    },
    {
      "type": "Feature",
      "properties": {
        "norad_id": 59051,
        "name": "METEOR-M2 4",
        "group": "weather",
        "lat": -40.82914525219537,
        "lon": 124.79875318537617,
        "alt_km": 825.4397163361255,
        "timestamp": "2025-12-21T14:40:47.553723+00:00",
        "meta_object_name": "METEOR-M2 4",
        "meta_object_id": "2024-039A",
        "meta_epoch": "2025-12-21T06:53:20.848704",
        "meta_mean_motion": 14.22402537,
        "meta_eccentricity": 0.00065876,
        "meta_inclination": 98.6779,
        "meta_ra_of_asc_node": 312.0623,
        "meta_arg_of_pericenter": 333.2389,
        "meta_mean_anomaly": 26.8449,
        "meta_ephemeris_type": 0,
        "meta_classification_type": "U",
        "meta_norad_cat_id": 59051,
        "meta_element_set_no": 999,
        "meta_rev_at_epoch": 9397,
        "meta_bstar": 2.6919993e-05,
        "meta_mean_motion_dot": 1.6e-07,
        "meta_mean_motion_ddot": 0,
        "tle_line1": "1 59051U 24039A   25355.28704686  .00000016  00000+0  26920-4 0  9998",
        "tle_line2": "2 59051  98.6779 312.0623 0006587 333.2389  26.8449 14.22402537 93973"
      },
      "geometry": {
        "type": "Point",
        "coordinates": [
          124.79875318537617,
          -40.82914525219537
        ]
      }
    },
    {
      "type": "Feature",
      "properties": {
        "norad_id": 60133,
        "name": "GOES 19",
        "group": "weather",
        "lat": -0.0002821931598539219,
        "lon": -124.5881990887097,
        "alt_km": 35786.465981640424,
        "timestamp": "2025-12-21T14:40:47.553741+00:00",
        "meta_object_name": "GOES 19",
        "meta_object_id": "2024-119A",
        "meta_epoch": "2025-12-21T04:16:52.890816",
        "meta_mean_motion": 1.00270672,
        "meta_eccentricity": 0.00011267,
        "meta_inclination": 0.0058,
        "meta_ra_of_asc_node": 105.2883,
        "meta_arg_of_pericenter": 220.7602,
        "meta_mean_anomaly": 112.9814,
        "meta_ephemeris_type": 0,
        "meta_classification_type": "U",
        "meta_norad_cat_id": 60133,
        "meta_element_set_no": 999,
        "meta_rev_at_epoch": 517,
        "meta_bstar": 0,
        "meta_mean_motion_dot": -2.25e-06,
        "meta_mean_motion_ddot": 0,
        "tle_line1": "1 60133U 24119A   25355.17838994 -.00000225  00000+0  00000+0 0  9997",
        "tle_line2": "2 60133   0.0058 105.2883 0001126 220.7602 112.9814  1.00270672  5178"
      },
      "geometry": {
        "type": "Point",
        "coordinates": [
          -124.5881990887097,
          -0.0002821931598539219
        ]
      }
    },
    {
      "type": "Feature",
      "properties": {
        "norad_id": 65815,
        "name": "FENGYUN 3H",
        "group": "weather",
        "lat": 20.296261847835527,
        "lon": -68.22134518702758,
        "alt_km": 825.5674041872535,
        "timestamp": "2025-12-21T14:40:47.553753+00:00",
        "meta_object_name": "FENGYUN 3H",
        "meta_object_id": "2025-219A",
        "meta_epoch": "2025-12-21T06:07:38.642304",
        "meta_mean_motion": 14.19906835,
        "meta_eccentricity": 7.48e-05,
        "meta_inclination": 98.6597,
        "meta_ra_of_asc_node": 294.6611,
        "meta_arg_of_pericenter": 105.9255,
        "meta_mean_anomaly": 254.2004,
        "meta_ephemeris_type": 0,
        "meta_classification_type": "U",
        "meta_norad_cat_id": 65815,
        "meta_element_set_no": 999,
        "meta_rev_at_epoch": 1213,
        "meta_bstar": 4.8788251e-05,
        "meta_mean_motion_dot": 6e-07,
        "meta_mean_motion_ddot": 0,
        "tle_line1": "1 65815U 25219A   25355.25530836  .00000060  00000+0  48788-4 0  9990",
        "tle_line2": "2 65815  98.6597 294.6611 0000748 105.9255 254.2004 14.19906835 12136"
      },
      "geometry": {
        "type": "Point",
        "coordinates": [
          -68.22134518702758,
          20.296261847835527
        ]
      }
    }
  ]
}